{"type": "FeatureCollection", "features": [ {"type": "Feature", "properties": {"norad_id": 39122, "name": "EUTELSAT 117 WEST A", "group": "eutelsat", "lat": 0.03341160597884422, "lon": 76.89573999375985, "alt_km": 35799.47070672447, "timestamp": "2025-12-09T07:41:32.874843+00:00", "meta": {"OBJECT_NAME": "EUTELSAT 117 WEST A", "OBJECT_ID": "2013-012A", "EPOCH": "2025-12-08T21:36:32.988384", "MEAN_MOTION": 1.00270554, "ECCENTRICITY": 0.00030887, "INCLINATION": 0.0126, "RA_OF_ASC_NODE": 343.7041, "ARG_OF_PERICENTER": 275.9296, "MEAN_ANOMALY": 25.6021, "EPHEMERIS_TYPE": 0, "CLASSIFICATION_TYPE": "U", "NORAD_CAT_ID": 39122, "ELEMENT_SET_NO": 999, "REV_AT_EPOCH": 4652, "BSTAR": 0, "MEAN_MOTION_DOT": -1.1e-07, "MEAN_MOTION_DDOT": 0}, "tle": {"line1": "1 39122U 13012A   25342.90038181 -.00000011  00000+0  00000+0 0  9991", "line2": "2 39122   0.0126 343.7041 0003088 275.9296  25.6021  1.00270554 46526"}}, "geometry": {"type": "Point", "coordinates": [76.89573999375985, 0.03341160597884422]}}, {"type": "Feature", "properties": {"norad_id": 39163, "name": "EUTELSAT 7B", "group": "eutelsat", "lat": -0.019756679064922098, "lon": -159.36468403988243, "alt_km": 35793.74808933603, "timestamp": "2025-12-09T07:41:32.874856+00:00", "meta": {"OBJECT_NAME": "EUTELSAT 7B", "OBJECT_ID": "2013-022A", "EPOCH": "2025-12-08T22:21:38.733120", "MEAN_MOTION": 1.0027143, "ECCENTRICITY": 0.00045601, "INCLINATION": 0.0704, "RA_OF_ASC_NODE": 13.6916, "ARG_OF_PERICENTER": 300.4853, "MEAN_ANOMALY": 106.1514, "EPHEMERIS_TYPE": 0, "CLASSIFICATION_TYPE": "U", "NORAD_CAT_ID": 39163, "ELEMENT_SET_NO": 999, "REV_AT_EPOCH": 4604, "BSTAR": 0, "MEAN_MOTION_DOT": 5e-07, "MEAN_MOTION_DDOT": 0}, "tle": {"line1": "1 39163U 13022A   25342.93169830  .00000050  00000+0  00000+0 0  9998", "line2": "2 39163   0.0704  13.6916 0004560 300.4853 106.1514  1.00271430 46049"}}, "geometry": {"type": "Point", "coordinates": [-159.36468403988243, -0.019756679064922098]}}, {"type": "Feature", "properties": {"norad_id": 39612, "name": "EXPRESS-AT1", "group": "eutelsat", "lat": -0.03268655124126412, "lon": -110.29753654388541, "alt_km": 35785.0280237486, "timestamp": "2025-12-09T07:41:32.874868+00:00", "meta": {"OBJECT_NAME": "EXPRESS-AT1", "OBJECT_ID": "2014-010A", "EPOCH": "2025-12-08T20:48:38.730816", "MEAN_MOTION": 1.00269923, "ECCENTRICITY": 6.441e-05, "INCLINATION": 0.0183, "RA_OF_ASC_NODE": 306.8649, "ARG_OF_PERICENTER": 247.3139, "MEAN_ANOMALY": 251.8516, "EPHEMERIS_TYPE": 0, "CLASSIFICATION_TYPE": "U", "NORAD_CAT_ID": 39612, "ELEMENT_SET_NO": 999, "REV_AT_EPOCH": 4291, "BSTAR": 0, "MEAN_MOTION_DOT": 8.1e-07, "MEAN_MOTION_DDOT": 0}, "tle": {"line1": "1 39612U 14010A   25342.86711494  .00000081  00000+0  00000+0 0  9990", "line2": "2 39612   0.0183 306.8649 0000644 247.3139 251.8516  1.00269923 42910"}}, "geometry": {"type": "Point", "coordinates": [-110.29753654388541, -0.03268655124126412]}}, {"type": "Feature", "properties": {"norad_id": 39613, "name": "EXPRESS-AT2", "group": "eutelsat", "lat": 0.006867244630836198, "lon": -26.425068724185824, "alt_km": 35781.649768189774, "timestamp": "2025-12-09T07:41:32.874890+00:00", "meta": {"OBJECT_NAME": "EXPRESS-AT2", "OBJECT_ID": "2014-010B", "EPOCH": "2025-12-08T22:49:48.470880", "MEAN_MOTION": 1.00272532, "ECCENTRICITY": 0.00015663, "INCLINATION": 0.018, "RA_OF_ASC_NODE": 310.8586, "ARG_OF_PERICENTER": 332.9844, "MEAN_ANOMALY": 276.4219, "EPHEMERIS_TYPE": 0, "CLASSIFICATION_TYPE": "U", "NORAD_CAT_ID": 39613, "ELEMENT_SET_NO": 999, "REV_AT_EPOCH": 4259, "BSTAR": 0, "MEAN_MOTION_DOT": -2.79e-06, "MEAN_MOTION_DDOT": 0}, "tle": {"line1": "1 39613U 14010B   25342.95125545 -.00000279  00000+0  00000+0 0  9997", "line2": "2 39613   0.0180 310.8586 0001566 332.9844 276.4219  1.00272532 42598"}}, "geometry": {"type": "Point", "coordinates": [-26.425068724185824, 0.006867244630836198]}}, {"type": "Feature", "properties": {"norad_id": 39773, "name": "EUTELSAT 3B", "group": "eutelsat", "lat": -0.04925611939624836, "lon": -163.2258727763255, "alt_km": 35769.04042341387, "timestamp": "2025-12-09T07:41:32.874915+00:00", "meta": {"OBJECT_NAME": "EUTELSAT 3B", "OBJECT_ID": "2014-030A", "EPOCH": "2025-12-08T22:10:44.711904", "MEAN_MOTION": 1.0027126, "ECCENTRICITY": 0.00047749, "INCLINATION": 0.0633, "RA_OF_ASC_NODE": 340.6749, "ARG_OF_PERICENTER": 247.5106, "MEAN_ANOMALY": 185.5304, "EPHEMERIS_TYPE": 0, "CLASSIFICATION_TYPE": "U", "NORAD_CAT_ID": 39773, "ELEMENT_SET_NO": 999, "REV_AT_EPOCH": 4215, "BSTAR": 0, "MEAN_MOTION_DOT": 2.2e-07, "MEAN_MOTION_DDOT": 0}, "tle": {"line1": "1 39773U 14030A   25342.92412861  .00000022  00000+0  00000+0 0  9998", "line2": "2 39773   0.0633 340.6749 0004774 247.5106 185.5304  1.00271260 42150"}}, "geometry": {"type": "Point", "coordinates": [-163.2258727763255, -0.04925611939624836]}}, {"type": "Feature", "properties": {"norad_id": 40425, "name": "EUTELSAT 115 WEST B", "group": "eutelsat", "lat": -0.011475943601265666, "lon": 78.78716356403055, "alt_km": 35787.26454482547, "timestamp": "2025-12-09T07:41:32.874933+00:00", "meta": {"OBJECT_NAME": "EUTELSAT 115 WEST B", "OBJECT_ID": "2015-010B", "EPOCH": "2025-12-08T21:37:02.939808", "MEAN_MOTION": 1.0026462, "ECCENTRICITY": 3.497e-05, "INCLINATION": 0.0085, "RA_OF_ASC_NODE": 149.7975, "ARG_OF_PERICENTER": 345.4858, "MEAN_ANOMALY": 151.983, "EPHEMERIS_TYPE": 0, "CLASSIFICATION_TYPE": "U", "NORAD_CAT_ID": 40425, "ELEMENT_SET_NO": 999, "REV_AT_EPOCH": 3948, "BSTAR": 0, "MEAN_MOTION_DOT": -2.2e-07, "MEAN_MOTION_DDOT": 0}, "tle": {"line1": "1 40425U 15010B   25342.90072847 -.00000022  00000+0  00000+0 0  9998", "line2": "2 40425   0.0085 149.7975 0000349 345.4858 151.9830  1.00264620 39487"}}, "geometry": {"type": "Point", "coordinates": [78.78716356403055, -0.011475943601265666]}}, {"type": "Feature", "properties": {"norad_id": 40875, "name": "EUTELSAT 8 WEST B", "group": "eutelsat", "lat": -0.01401302496482788, "lon": -174.33470591118444, "alt_km": 35781.20114214667, "timestamp": "2025-12-09T07:41:32.874946+00:00", "meta": {"OBJECT_NAME": "EUTELSAT 8 WEST B", "OBJECT_ID": "2015-039B", "EPOCH": "2025-12-08T22:07:37.509888", "MEAN_MOTION": 1.00271462, "ECCENTRICITY": 0.00041506, "INCLINATION": 0.0645, "RA_OF_ASC_NODE": 359.6326, "ARG_OF_PERICENTER": 259.6148, "MEAN_ANOMALY": 142.5943, "EPHEMERIS_TYPE": 0, "CLASSIFICATION_TYPE": "U", "NORAD_CAT_ID": 40875, "ELEMENT_SET_NO": 999, "REV_AT_EPOCH": 3774, "BSTAR": 0, "MEAN_MOTION_DOT": -6.3e-07, "MEAN_MOTION_DDOT": 0}, "tle": {"line1": "1 40875U 15039B   25342.92196192 -.00000063  00000+0  00000+0 0  9995", "line2": "2 40875   0.0645 359.6326 0004150 259.6148 142.5943  1.00271462 37742"}}, "geometry": {"type": "Point", "coordinates": [-174.33470591118444, -0.01401302496482788]}}, {"type": "Feature", "properties": {"norad_id": 41310, "name": "EUTELSAT 9B", "group": "eutelsat", "lat": 0.006140301401681419, "lon": -157.34152154173157, "alt_km": 35776.27945877386, "timestamp": "2025-12-09T07:41:32.874958+00:00", "meta": {"OBJECT_NAME": "EUTELSAT 9B", "OBJECT_ID": "2016-005A", "EPOCH": "2025-12-08T21:44:38.781888", "MEAN_MOTION": 1.00271973, "ECCENTRICITY": 0.00048973, "INCLINATION": 0.0356, "RA_OF_ASC_NODE": 52.0517, "ARG_OF_PERICENTER": 212.7263, "MEAN_ANOMALY": 148.2994, "EPHEMERIS_TYPE": 0, "CLASSIFICATION_TYPE": "U", "NORAD_CAT_ID": 41310, "ELEMENT_SET_NO": 999, "REV_AT_EPOCH": 3620, "BSTAR": 0, "MEAN_MOTION_DOT": 6.4e-07, "MEAN_MOTION_DDOT": 0}, "tle": {"line1": "1 41310U 16005A   25342.90600442  .00000064  00000+0  00000+0 0  9990", "line2": "2 41310   0.0356  52.0517 0004897 212.7263 148.2994  1.00271973 36204"}}, "geometry": {"type": "Point", "coordinates": [-157.34152154173157, 0.006140301401681419]}}, {"type": "Feature", "properties": {"norad_id": 41382, "name": "EUTELSAT 65 WEST A", "group": "eutelsat", "lat": 0.0525020570095042, "lon": 128.46266961372837, "alt_km": 35793.85048860895, "timestamp": "2025-12-09T07:41:32.874970+00:00", "meta": {"OBJECT_NAME": "EUTELSAT 65 WEST A", "OBJECT_ID": "2016-014A", "EPOCH": "2025-12-08T12:41:22.901856", "MEAN_MOTION": 1.00271818, "ECCENTRICITY": 0.00026162, "INCLINATION": 0.0497, "RA_OF_ASC_NODE": 1.9264, "ARG_OF_PERICENTER": 260.5786, "MEAN_ANOMALY": 300.161, "EPHEMERIS_TYPE": 0, "CLASSIFICATION_TYPE": "U", "NORAD_CAT_ID": 41382, "ELEMENT_SET_NO": 999, "REV_AT_EPOCH": 3562, "BSTAR": 0, "MEAN_MOTION_DOT": -2.74e-06, "MEAN_MOTION_DDOT": 0}, "tle": {"line1": "1 41382U 16014A   25342.52873729 -.00000274  00000+0  00000+0 0  9991", "line2": "2 41382   0.0497   1.9264 0002616 260.5786 300.1610  1.00271818 35626"}}, "geometry": {"type": "Point", "coordinates": [128.46266961372837, 0.0525020570095042]}}, {"type": "Feature", "properties": {"norad_id": 41589, "name": "EUTELSAT 117 WEST B", "group": "eutelsat", "lat": -0.014884237132644721, "lon": 76.69479203022811, "alt_km": 35785.04165695144, "timestamp": "2025-12-09T07:41:32.874982+00:00", "meta": {"OBJECT_NAME": "EUTELSAT 117 WEST B", "OBJECT_ID": "2016-038B", "EPOCH": "2025-12-08T21:36:18.011808", "MEAN_MOTION": 1.00269979, "ECCENTRICITY": 3.959e-05, "INCLINATION": 0.0047, "RA_OF_ASC_NODE": 146.6859, "ARG_OF_PERICENTER": 313.5704, "MEAN_ANOMALY": 184.7203, "EPHEMERIS_TYPE": 0, "CLASSIFICATION_TYPE": "U", "NORAD_CAT_ID": 41589, "ELEMENT_SET_NO": 999, "REV_AT_EPOCH": 3475, "BSTAR": 0, "MEAN_MOTION_DOT": -9e-08, "MEAN_MOTION_DDOT": 0}, "tle": {"line1": "1 41589U 16038B   25342.90020847 -.00000009  00000+0  00000+0 0  9999", "line2": "2 41589   0.0047 146.6859 0000395 313.5704 184.7203  1.00269979 34756"}}, "geometry": {"type": "Point", "coordinates": [76.69479203022811, -0.014884237132644721]}}]}